NORAD_CAT_ID,OBJECT_NAME,OBJECT_TYPE,EPOCH,MEAN_MOTION,ECCENTRICITY,INCLINATION,RA_OF_ASC_NODE,ARG_OF_PERICENTER,MEAN_ANOMALY,BSTAR,MEAN_MOTION_DOT,MEAN_MOTION_DDOT,TLE_LINE0,TLE_LINE1,TLE_LINE2,SEMIMAJOR_AXIS,PERIOD,APOGEE,PERIGEE,DECAYED
54078.0,STARLINK-5138,PAYLOAD,2022-11-18 06:00:00,15.7320612,0.0003995,53.2159,6.1585,10.9473,138.3094,0.00016183,0.00022162,0.0,0 STARLINK-5138,1 54078U 22136AD  22322.25001157  .00022162  00000-0  16183-3 0  9995,2 54078  53.2159   6.1585 0003995  10.9473 138.3094 15.73206120  5017,6727.878000000002,91.533,352.431,347.055,0.0
54078.0,STARLINK-5138,PAYLOAD,2022-11-18 14:00:01,15.7322976,0.0004253999999999,53.2155,4.5127,8.4637,229.7403,-0.0001085,-0.00015851,0.0,0 STARLINK-5138,1 54078U 22136AD  22322.58334491 -.00015851  00000-0 -10850-3 0  9995,2 54078  53.2155   4.5127 0004254   8.4637 229.7403 15.73229760  1302,6727.81,91.531,352.537,346.81300000000016,0.0
54078.0,STARLINK-5138,PAYLOAD,2022-11-18 22:00:00,15.73209514,0.0004067,53.2158,2.861,7.313,319.8562,6.6412e-05,8.713e-05,0.0,0 STARLINK-5138,1 54078U 22136AD  22322.91667824  .00008713  00000-0  66412-4 0  9994,2 54078  53.2158   2.8610 0004067   7.3130 319.8562 15.73209514  1303,6727.868,91.533,352.469,346.997,0.0
54078.0,STARLINK-5138,PAYLOAD,2022-11-19 08:00:01,15.73202173,0.0004243,53.2156,0.8003,6.856,161.4954,8.8539e-05,0.00011825,0.0,0 STARLINK-5138,1 54078U 22136AD  22323.33334491  .00011825  00000-0  88539-4 0  9994,2 54078  53.2156   0.8003 0004243   6.8560 161.4954 15.73202173  5182,6727.889,91.533,352.6090000000001,346.899,0.0
54078.0,STARLINK-5138,PAYLOAD,2022-11-19 14:00:01,15.73208695,0.0004364,53.2152,359.564,5.7323,139.3211,-7.5347e-05,-0.00011196,0.0,0 STARLINK-5138,1 54078U 22136AD  22323.58334491 -.00011196  00000-0 -75347-4 0  9997,2 54078  53.2152 359.5640 0004364   5.7323 139.3211 15.73208695  1303,6727.87,91.533,352.671,346.7990000000001,0.0
54078.0,STARLINK-5138,PAYLOAD,2022-11-19 22:00:00,15.73189326,0.0004082,53.2152,357.9124,4.1212,229.8688,0.00021255,0.00029309,0.0,0 STARLINK-5138,1 54078U 22136AD  22323.91667824  .00029309  00000-0  21255-3 0  9994,2 54078  53.2152 357.9124 0004082   4.1212 229.8688 15.73189326  1301,6727.926,91.534,352.537,347.0440000000001,0.0
54078.0,STARLINK-5138,PAYLOAD,2022-11-20 06:00:00,15.73223146,0.0004127,53.2153,356.2637,3.1285,319.7869,-0.00054422,-0.0007643,0.0,0 STARLINK-5138,1 54078U 22136AD  22324.25001157 -.00076430  00000-0 -54422-3 0  9994,2 54078  53.2153 356.2637 0004127   3.1285 319.7869 15.73223146  5338,6727.829000000002,91.532,352.471,346.918,0.0
54078.0,STARLINK-5138,PAYLOAD,2022-11-20 14:00:01,15.73128271,0.0004396,53.2151,354.6154,1.1122,50.7309,0.00040055,0.00055818,0.0,0 STARLINK-5138,1 54078U 22136AD  22324.58334491  .00055818  00000-0  40055-3 0  9992,2 54078  53.2151 354.6154 0004396   1.1122  50.7309 15.73128271  1305,6728.1,91.537,352.922,347.00699999999995,0.0
54078.0,STARLINK-5138,PAYLOAD,2022-11-20 22:00:00,15.73138564,0.0004192,53.2154,352.9639,1.2834,139.4332,0.00061324,0.00086134,0.0,0 STARLINK-5138,1 54078U 22136AD  22324.91667824  .00086134  00000-0  61324-3 0  9995,2 54078  53.2154 352.9639 0004192   1.2834 139.4332 15.73138564  1309,6728.07,91.537,352.756,347.115,0.0
54078.0,STARLINK-5138,PAYLOAD,2022-11-21 08:00:01,15.73223607,0.0004386999999999,53.2152,350.9034,2.7893,339.0666,-0.00045842,-0.00064574,0.0,0 STARLINK-5138,1 54078U 22136AD  22325.33334491 -.00064574  00000-0 -45842-3 0  9996,2 54078  53.2152 350.9034 0004387   2.7893 339.0666 15.73223607  5508,6727.828,91.532,352.644,346.741,0.0
54078.0,STARLINK-5138,PAYLOAD,2022-11-21 14:00:01,15.73165763,0.0004544,53.2148,349.6667,1.4363,317.1222,0.00054593,0.0007662,0.0,0 STARLINK-5138,1 54078U 22136AD  22325.58334491  .00076620  00000-0  54593-3 0  9999,2 54078  53.2148 349.6667 0004544   1.4363 317.1222 15.73165763  1300,6727.993,91.535,352.915,346.801,0.0
54078.0,STARLINK-5138,PAYLOAD,2022-11-21 22:00:00,15.73190531,0.0004234,53.2147,348.0151,2.2625,45.2219,0.00060459,0.0008509,0.0,0 STARLINK-5138,1 54078U 22136AD  22325.91667824  .00085090  00000-0  60459-3 0  9994,2 54078  53.2147 348.0151 0004234   2.2625  45.2219 15.73190531  5597,6727.922,91.534,352.636,346.939,0.0
54078.0,STARLINK-5138,PAYLOAD,2022-11-22 06:00:02,15.73259356,0.000432,53.2148,346.3666,1.4952,135.009,-0.00048327,-0.00068115,0.0,0 STARLINK-5138,1 54078U 22136AD  22326.25002315 -.00068115  00000-0 -48327-3 0  9991,2 54078  53.2148 346.3666 0004320   1.4952 135.0090 15.73259356  5642,6727.726,91.53,352.497,346.685,0.0
54078.0,STARLINK-5138,PAYLOAD,2022-11-22 14:00:01,15.73199858,0.0004467,53.2146,344.7177,359.8131,225.6645,-7.7505e-05,-0.00011494,0.0,0 STARLINK-5138,1 54078U 22136AD  22326.58335648 -.00011494  00000-0 -77505-4 0  9994,2 54078  53.2146 344.7177 0004467 359.8131 225.6645 15.73199858  1301,6727.896,91.533,352.766,346.755,0.0
54078.0,STARLINK-5138,PAYLOAD,2022-11-22 22:00:00,15.73193512,0.0004225,53.2149,343.066,1.6345,312.7084,1.9546e-05,2.119e-05,0.0,0 STARLINK-5138,1 54078U 22136AD  22326.91667824  .00002119  00000-0  19546-4 0  9998,2 54078  53.2149 343.0660 0004225   1.6345 312.7084 15.73193512  5753,6727.9140000000025,91.534,352.621,346.936,0.0
54078.0,STARLINK-5138,PAYLOAD,2022-11-23 14:00:01,15.73204221,0.0004557,53.2145,339.7685,6.202999999999999,125.9604,0.00018685,0.00025697,0.0,0 STARLINK-5138,1 54078U 22136AD  22327.58334491  .00025697  00000-0  18685-3 0  9991,2 54078  53.2145 339.7685 0004557   6.2030 125.9604 15.73204221  1307,6727.8830000000025,91.533,352.814,346.682,0.0
54078.0,STARLINK-5138,PAYLOAD,2022-11-23 22:00:00,15.73190132,0.0004262,53.2144,338.1169,5.7865,215.336,0.00011595,0.00015679,0.0,0 STARLINK-5138,1 54078U 22136AD  22327.91667824  .00015679  00000-0  11595-3 0  9999,2 54078  53.2144 338.1169 0004262   5.7865 215.3360 15.73190132  1307,6727.9230000000025,91.534,352.656,346.921,0.0
54078.0,STARLINK-5138,PAYLOAD,2022-11-24 00:00:00,15.73173867,0.0004221,53.2146,337.7045,6.5062,326.8523,0.00039827,0.00055603,0.0,0 STARLINK-5138,1 54078U 22136AD  22328.00001157  .00055603  00000-0  39827-3 0  9990,2 54078  53.2146 337.7045 0004221   6.5062 326.8523 15.73173867  5927,6727.97,91.535,352.675,346.995,0.0
54078.0,STARLINK-5138,PAYLOAD,2022-11-24 14:00:01,15.73206595,0.0004452,53.2145,334.8194,4.3183,34.6798,-4.5793e-05,-7.053e-05,0.0,0 STARLINK-5138,1 54078U 22136AD  22328.58334491 -.00007053  00000-0 -45793-4 0  9991,2 54078  53.2145 334.8194 0004452   4.3183  34.6798 15.73206595  1306,6727.876,91.533,352.737,346.746,0.0
54078.0,STARLINK-5138,PAYLOAD,2022-11-24 22:00:00,15.73206997,0.0004198,53.2149,333.1677,4.3706,123.5635,-8.1757e-05,-0.00012092,0.0,0 STARLINK-5138,1 54078U 22136AD  22328.91667824 -.00012092  00000-0 -81757-4 0  9996,2 54078  53.2149 333.1677 0004198   4.3706 123.5635 15.73206997  1300,6727.875,91.533,352.565,346.916,0.0
54078.0,STARLINK-5138,PAYLOAD,2022-11-25 14:00:01,15.73253942,0.000443,53.2147,329.8701,3.8074,301.9844,-0.00039277,-0.00055547,0.0,0 STARLINK-5138,1 54078U 22136AD  22329.58334491 -.00055547  00000-0 -39277-3 0  9992,2 54078  53.2147 329.8701 0004430   3.8074 301.9844 15.73253942  6175,6727.741,91.53,352.587,346.626,0.0
54078.0,STARLINK-5138,PAYLOAD,2022-11-25 22:00:00,15.73179145,0.0004089,53.2148,328.2187,4.4851,30.2941,0.00076069,0.00107452,0.0,0 STARLINK-5138,1 54078U 22136AD  22329.91667824  .00107452  00000-0  76069-3 0  9999,2 54078  53.2148 328.2187 0004089   4.4851  30.2941 15.73179145  1309,6727.955,91.534,352.571,347.069,0.0
54078.0,STARLINK-5138,PAYLOAD,2022-11-26 06:00:00,15.7327209,0.0004271,53.2148,326.5709,3.2913,120.4364,-0.00050486,-0.00071143,0.0,0 STARLINK-5138,1 54078U 22136AD  22330.25001157 -.00071143  00000-0 -50486-3 0  9993,2 54078  53.2148 326.5709 0004271   3.2913 120.4364 15.73272090  6274,6727.69,91.529,352.42800000000005,346.681,0.0
54078.0,STARLINK-5138,PAYLOAD,2022-11-26 14:00:01,15.73267965,0.0004266,53.2149,324.9211,1.5654,211.1322,-0.00067922,-0.00095212,0.0,0 STARLINK-5138,1 54078U 22136AD  22330.58334491 -.00095212  00000-0 -67922-3 0  9995,2 54078  53.2149 324.9211 0004266   1.5654 211.1322 15.73267965  1308,6727.701,91.529,352.436,346.696,0.0
54078.0,STARLINK-5138,PAYLOAD,2022-11-26 22:00:00,15.7319634,0.0004021,53.2153,323.2695,2.6097,299.0652,-0.00036012,-0.00050878,0.0,0 STARLINK-5138,1 54078U 22136AD  22330.91667824 -.00050878  00000-0 -36012-3 0  9996,2 54078  53.2153 323.2695 0004021   2.6097 299.0652 15.73196340  6385,6727.906,91.533,352.476,347.065,0.0
54078.0,STARLINK-5138,PAYLOAD,2022-11-27 14:00:01,15.73167451,0.0004303,53.2151,319.9723,4.1069,115.3255,0.00014229,0.00019373,0.0,0 STARLINK-5138,1 54078U 22136AD  22331.58334491  .00019373  00000-0  14229-3 0  9990,2 54078  53.2151 319.9723 0004303   4.1069 115.3255 15.73167451  1303,6727.988,91.535,352.74800000000016,346.958,0.0
54078.0,STARLINK-5138,PAYLOAD,2022-11-27 22:00:00,15.73190708,0.0004007,53.2151,318.3214,4.968999999999999,203.3561,0.00020208,0.0002783,0.0,0 STARLINK-5138,1 54078U 22136AD  22331.91667824  .00027830  00000-0  20208-3 0  9997,2 54078  53.2151 318.3214 0004007   4.9690 203.3561 15.73190708  1309,6727.922,91.534,352.483,347.091,0.0
54078.0,STARLINK-5138,PAYLOAD,2022-11-28 16:00:00,15.73216622,0.0004096,53.2153,314.6109,1.7534,136.6694,-0.00036719,-0.00051904,0.0,0 STARLINK-5138,1 54078U 22136AD  22332.66667824 -.00051904  00000-0 -36719-3 0  9995,2 54078  53.2153 314.6109 0004096   1.7534 136.6694 15.73216622  6655,6727.848000000001,91.532,352.469,346.957,0.0
54078.0,STARLINK-5138,PAYLOAD,2022-11-28 22:00:01,15.73168897,0.0003937,53.2154,313.3728,2.6632,112.5198,0.00061815,0.00086946,0.0,0 STARLINK-5138,1 54078U 22136AD  22332.91668981  .00086946  00000-0  61815-3 0  9995,2 54078  53.2154 313.3728 0003937   2.6632 112.5198 15.73168897  1300,6727.984,91.535,352.49800000000016,347.2,0.0
